OBJECT_NAME,OBJECT_ID,EPOCH,MEAN_MOTION,ECCENTRICITY,INCLINATION,RA_OF_ASC_NODE,ARG_OF_PERICENTER,MEAN_ANOMALY,EPHEMERIS_TYPE,CLASSIFICATION_TYPE,NORAD_CAT_ID,ELEMENT_SET_NO,REV_AT_EPOCH,BSTAR,MEAN_MOTION_DOT,MEAN_MOTION_DDOT
GLOBALSTAR M069,2007-020C,2026-06-10T00:43:34.544352,12.23470926,.00024837,52.0040,272.3835,133.2602,53.3068,0,U,31573,999,87792,-.76390877E-4,-.101E-5,0
GLOBALSTAR M072,2007-020D,2026-06-10T03:57:27.216576,11.91658476,.00013956,51.9914,118.9400,312.2972,73.2906,0,U,31574,999,87414,.12865351E-3,-.75E-6,0
GLOBALSTAR M066,2007-048C,2026-06-10T02:00:27.349632,12.30388405,.00053666,51.9594,78.3037,28.9666,5.6714,0,U,32265,999,85935,-.3532031E-3,-.136E-5,0
GLOBALSTAR M079,2010-054A,2026-06-10T05:42:04.073760,12.62266030,.00005497,52.0020,129.8248,6.0342,11.0944,0,U,37188,999,72167,.86859434E-4,-.88E-6,0
GLOBALSTAR M074,2010-054B,2026-06-10T04:27:56.714112,12.62268415,.00003939,51.9997,129.2475,46.2422,337.0384,0,U,37189,999,72227,.31878902E-4,-.98E-6,0
GLOBALSTAR M076,2010-054C,2026-06-10T05:07:54.198336,12.62261820,.00005809,52.0016,129.3656,33.5730,356.1046,0,U,37190,999,72199,-.52993187E-4,-.113E-5,0
GLOBALSTAR M077,2010-054D,2026-06-09T21:01:57.580032,11.67547608,.000285,51.9929,197.8529,159.4091,31.8603,0,U,37191,999,72028,.16829256E-3,-.69E-6,0
GLOBALSTAR M075,2010-054E,2026-06-10T07:19:05.837088,12.62267371,.00000219,51.9920,171.1481,99.4566,284.1781,0,U,37192,999,72107,.98238708E-4,-.86E-6,0
GLOBALSTAR M073,2010-054F,2026-06-10T01:37:28.790112,12.62262122,.00007846,52.0062,85.9636,34.0872,349.6306,0,U,37193,999,72303,-.27355737E-4,-.109E-5,0
GLOBALSTAR M083,2011-033A,2026-06-09T22:07:06.894048,12.62262934,.00008503,51.9872,34.6471,56.6762,324.2987,0,U,37739,999,69203,.1128261E-4,-.102E-5,0
GLOBALSTAR M088,2011-033B,2026-06-09T15:46:39.993312,12.62268589,.00008278,52.0228,301.8628,115.3216,262.7505,0,U,37740,999,68754,.49417919E-4,-.95E-6,0
GLOBALSTAR M091,2011-033C,2026-06-10T00:30:03.110112,12.62263778,.00004624,52.0003,263.7329,139.8113,31.7614,0,U,37741,999,68837,.28373048E-4,-.99E-6,0
GLOBALSTAR M085,2011-033D,2026-06-09T22:21:45.925920,12.62263950,.00001674,52.0109,215.2899,194.5334,352.1096,0,U,37742,999,68887,.64511572E-4,-.92E-6,0
GLOBALSTAR M081,2011-033E,2026-06-09T21:03:14.302368,12.62264835,.00002071,51.9939,217.9004,128.2785,50.0314,0,U,37743,999,68901,.61581933E-4,-.93E-6,0
GLOBALSTAR M089,2011-033F,2026-06-10T06:39:44.983008,12.62267115,.00003536,51.9904,170.8409,99.5406,279.7426,0,U,37744,999,68991,.16587378E-3,-.74E-6,0
GLOBALSTAR M084,2011-080A,2026-06-09T23:27:40.792608,12.62267500,.00010463,52.0027,39.2308,74.5742,320.5237,0,U,38040,999,66785,-.1600951E-5,-.104E-5,0
GLOBALSTAR M080,2011-080B,2026-06-09T22:42:59.025600,12.62269267,.00003079,52.0077,41.0408,68.8144,315.1721,0,U,38041,999,66797,-.4306369E-5,-.105E-5,0
GLOBALSTAR M082,2011-080C,2026-06-09T20:10:56.000352,12.62269936,.000054,52.0097,356.8622,89.0614,105.0212,0,U,38042,999,66866,.80473E-4,-.89E-6,0
GLOBALSTAR M092,2011-080D,2026-06-10T02:17:11.035104,12.62266908,.0000575,52.0086,86.4842,53.7840,335.5946,0,U,38043,999,66715,.16385804E-4,-.101E-5,0
GLOBALSTAR M090,2011-080E,2026-06-10T06:14:36.725856,12.62269008,.00008041,52.0144,349.5401,82.2816,96.6628,0,U,38044,999,66883,.60207963E-4,-.93E-6,0
GLOBALSTAR M086,2011-080F,2026-06-10T06:48:16.967808,12.62286631,.00016428,51.9914,349.4101,55.6109,130.1551,0,U,38045,999,66878,.11428849E-3,-.83E-6,0
GLOBALSTAR M097,2013-005A,2026-06-10T00:52:08.226048,12.62247180,.00004297,52.0053,265.1044,123.8126,236.2782,0,U,39072,999,61600,.24991031E-4,-.99E-6,0
GLOBALSTAR M093,2013-005B,2026-06-10T00:13:43.000608,12.62265761,.00002963,52.0108,258.5299,106.2706,253.8194,0,U,39073,999,61595,.36935516E-4,-.97E-6,0
GLOBALSTAR M094,2013-005C,2026-06-10T04:01:38.770176,12.62268571,.0000229,51.9929,172.1713,341.1604,18.9254,0,U,39074,999,61758,.10228931E-3,-.85E-6,0
GLOBALSTAR M096,2013-005D,2026-06-09T20:44:55.468032,12.62265425,.00001598,52.0058,221.8915,167.4562,192.6309,0,U,39075,999,61646,.62447419E-4,-.93E-6,0
GLOBALSTAR M078,2013-005E,2026-06-10T01:48:05.527872,12.62258769,.00005697,51.9890,305.2681,201.7083,158.3760,0,U,39076,999,61511,-.42109381E-3,-.179E-5,0
GLOBALSTAR M095,2013-005F,2026-06-10T02:26:38.575104,12.62263343,.00003628,52.0095,302.7809,122.7161,237.3741,0,U,39077,999,61497,.4145387E-5,-.103E-5,0
GLOBALSTAR M087,2022-064A,2026-06-10T00:51:43.878528,12.62268960,.00006124,51.9998,84.2235,22.9964,337.0930,0,U,52888,999,19023,.16799683E-4,-.101E-5,0
